{
    "links": {
        "self": "http://www.neowsapp.com/rest/v1/neo/3843647?api_key=iIulBulltgU6a56xZRHN4H3l9WmuAYTsLGpBGhQ2"
    },
    "id": "3843647",
    "neo_reference_id": "3843647",
    "name": "(2019 QW4)",
    "designation": "2019 QW4",
    "nasa_jpl_url": "http://ssd.jpl.nasa.gov/sbdb.cgi?sstr=3843647",
    "absolute_magnitude_h": 24.6,
    "estimated_diameter": {
        "kilometers": {
            "estimated_diameter_min": 0.0319561887,
            "estimated_diameter_max": 0.0714562102
        },
        "meters": {
            "estimated_diameter_min": 31.9561886721,
            "estimated_diameter_max": 71.4562101727
        },
        "miles": {
            "estimated_diameter_min": 0.0198566489,
            "estimated_diameter_max": 0.0444008168
        },
        "feet": {
            "estimated_diameter_min": 104.8431420431,
            "estimated_diameter_max": 234.436392583
        }
    },
    "is_potentially_hazardous_asteroid": false,
    "close_approach_data": [
        {
            "close_approach_date": "2000-09-29",
            "close_approach_date_full": "2000-Sep-29 20:56",
            "epoch_date_close_approach": 970260960000,
            "relative_velocity": {
                "kilometers_per_second": "15.089057159",
                "kilometers_per_hour": "54320.6057722412",
                "miles_per_hour": "33752.7119588685"
            },
            "miss_distance": {
                "astronomical": "0.3604593224",
                "lunar": "140.2186764136",
                "kilometers": "53923946.852683288",
                "miles": "33506786.8439058544"
            },
            "orbiting_body": "Earth"
        },
        {
            "close_approach_date": "2019-08-26",
            "close_approach_date_full": "2019-Aug-26 21:54",
            "epoch_date_close_approach": 1566856440000,
            "relative_velocity": {
                "kilometers_per_second": "6.0380627254",
                "kilometers_per_hour": "21737.0258114361",
                "miles_per_hour": "13506.5425104448"
            },
            "miss_distance": {
                "astronomical": "0.0525441838",
                "lunar": "20.4396874982",
                "kilometers": "7860497.977368506",
                "miles": "4884286.9557411428"
            },
            "orbiting_body": "Earth"
        },
        {
            "close_approach_date": "2045-10-08",
            "close_approach_date_full": "2045-Oct-08 08:28",
            "epoch_date_close_approach": 2391064080000,
            "relative_velocity": {
                "kilometers_per_second": "18.9631445965",
                "kilometers_per_hour": "68267.3205472708",
                "miles_per_hour": "42418.6581478305"
            },
            "miss_distance": {
                "astronomical": "0.4937623939",
                "lunar": "192.0735712271",
                "kilometers": "73865802.413540993",
                "miles": "45898081.2974639834"
            },
            "orbiting_body": "Earth"
        }
    ],
    "orbital_data": {
        "orbit_id": "10",
        "orbit_determination_date": "2020-09-22 06:45:11",
        "first_observation_date": "2019-08-28",
        "last_observation_date": "2019-10-05",
        "data_arc_in_days": 38,
        "observations_used": 83,
        "orbit_uncertainty": "6",
        "minimum_orbit_intersection": ".0486563",
        "jupiter_tisserand_invariant": "3.990",
        "epoch_osculation": "2459000.5",
        "eccentricity": ".4041996554560361",
        "semi_major_axis": "1.778130724118119",
        "inclination": "5.995619658018871",
        "ascending_node_longitude": "331.1099682851507",
        "orbital_period": "866.0519743337892",
        "perihelion_distance": "1.059410898073783",
        "perihelion_argument": "357.4297158477477",
        "aphelion_distance": "2.496850550162454",
        "perihelion_time": "2458719.084789822125",
        "mean_anomaly": "116.9785170710653",
        "mean_motion": ".4156794403441319",
        "equinox": "J2000",
        "orbit_class": {
            "orbit_class_type": "AMO",
            "orbit_class_description": "Near-Earth asteroid orbits similar to that of 1221 Amor",
            "orbit_class_range": "1.017 AU < q (perihelion) < 1.3 AU"
        }
    },
    "is_sentry_object": false
}